[{"OBJECT_NAME":"STARLINK-31286","OBJECT_ID":"2024-041J","EPOCH":"2026-03-09T00:48:25.216416","MEAN_MOTION":15.27572218,"ECCENTRICITY":0.00018568,"INCLINATION":43.0104,"RA_OF_ASC_NODE":314.1952,"ARG_OF_PERICENTER":259.8906,"MEAN_ANOMALY":100.1736,"EPHEMERIS_TYPE":0,"CLASSIFICATION_TYPE":"U","NORAD_CAT_ID":59082,"ELEMENT_SET_NO":999,"REV_AT_EPOCH":11425,"BSTAR":-8.1247627e-5,"MEAN_MOTION_DOT":-2.497e-5,"MEAN_MOTION_DDOT":0},{"OBJECT_NAME":"FENGYUN 1C DEB","OBJECT_ID":"1999-025DFQ","EPOCH":"2026-03-09T11:05:09.183840","MEAN_MOTION":15.08584918,"ECCENTRICITY":0.01333512,"INCLINATION":99.3393,"RA_OF_ASC_NODE":158.3034,"ARG_OF_PERICENTER":18.9579,"MEAN_ANOMALY":341.654,"EPHEMERIS_TYPE":0,"CLASSIFICATION_TYPE":"U","NORAD_CAT_ID":33679,"ELEMENT_SET_NO":999,"REV_AT_EPOCH":95428,"BSTAR":0.0014594523,"MEAN_MOTION_DOT":0.00028083,"MEAN_MOTION_DDOT":0}]
